ONEWEB-0208             
1 48243U 21031AK  26024.22121632 -.00000107  00000+0 -32179-3 0  9995
2 48243  87.9032 318.3991 0001549  85.5437 274.5870 13.14505352229394
ONEWEB-0200             
1 48244U 21031AL  26024.18474253  .00000236  00000+0  60237-3 0  9998
2 48244  87.9028 318.3956 0001679  81.5568 278.5752 13.14504848229310
ONEWEB-0217             
1 48245U 21031AM  26024.20060353  .00000171  00000+0  42628-3 0  9996
2 48245  87.9039 318.3901 0001530  86.3704 273.7601 13.14501053229263
ONEWEB-0211             
1 48767U 21045A   26024.20688308  .00000001  00000+0 -30542-4 0  9992
2 48767  87.9008 287.8536 0001133  83.9579 276.1681 13.16140263225506
ONEWEB-0223             
1 48768U 21045B   26024.21674618 -.00000093  00000+0 -28131-3 0  9995
2 48768  87.9008 287.9234 0001159  72.1476 287.9781 13.15549260225473
ONEWEB-0230             
1 48769U 21045C   26024.18821571  .00000157  00000+0  38332-3 0  9997
2 48769  87.8999 287.9560 0001722  73.3470 286.7849 13.15550186225737
ONEWEB-0237             
1 48770U 21045D   26024.25317890  .00000226  00000+0  56596-3 0  9990
2 48770  87.9000 287.9441 0001352  68.1874 291.9400 13.15550989225462
ONEWEB-0235             
1 48771U 21045E   26024.22783040  .00000017  00000+0  10969-4 0  9995
2 48771  87.9005 287.9221 0001233  67.7778 292.3483 13.15549998225453
ONEWEB-0242             
1 48772U 21045F   26024.22149185 -.00000051  00000+0 -16842-3 0  9997
2 48772  87.9009 287.9184 0001515  69.3524 290.7768 13.15550560225495
ONEWEB-0241             
1 48773U 21045G   26024.20881241 -.00000020  00000+0 -87473-4 0  9997
2 48773  87.8999 287.9545 0001200  82.0075 278.1191 13.15551180225408
ONEWEB-0243             
1 48774U 21045H   26024.24050302  .00000199  00000+0  49466-3 0  9992
2 48774  87.8998 287.9586 0001353  62.3127 297.8141 13.15547951225438
ONEWEB-0222             
1 48775U 21045J   26024.22386457 -.00000017  00000+0 -79702-4 0  9992
2 48775  87.9007 287.9180 0001392  76.4297 283.6989 13.15548236225472
ONEWEB-0244             
1 48776U 21045K   26024.25001332  .00000233  00000+0  58515-3 0  9998
2 48776  87.9012 287.9023 0001442  71.9349 288.1938 13.15550426226041
ONEWEB-0247             
1 48777U 21045L   26024.24684340  .00000194  00000+0  48210-3 0  9991
2 48777  87.8997 287.9526 0001144  42.6431 317.4788 13.15548769225480
ONEWEB-0245             
1 48778U 21045M   26024.24209361  .00000169  00000+0  41406-3 0  9990
2 48778  87.9005 287.9203 0001407  82.4657 277.6633 13.15550576225450
ONEWEB-0229             
1 48779U 21045N   26024.23733466  .00000065  00000+0  13881-3 0  9999
2 48779  87.9005 287.9190 0001548  71.0112 289.1186 13.15550667225487
ONEWEB-0228             
1 48780U 21045P   26024.19468548  .00000092  00000+0  21061-3 0  9991
2 48780  87.9009 287.9144 0001502  75.2868 284.8428 13.15547348225399
ONEWEB-0232             
1 48781U 21045Q   26024.24526106  .00000174  00000+0  42888-3 0  9994
2 48781  87.9016 287.9001 0001583  74.4038 285.7267 13.15547161225720
ONEWEB-0231             
1 48782U 21045R   26024.22306995 -.00000006  00000+0 -50725-4 0  9991
2 48782  87.8997 287.9391 0001401  69.4517 290.6764 13.15550086225418
ONEWEB-0234             
1 48783U 21045S   26024.18490716  .00000154  00000+0  37537-3 0  9999
2 48783  87.9003 287.9232 0001877 103.5810 256.5529 13.15546911225541
ONEWEB-0238             
1 48784U 21045T   26024.18517530  .00000198  00000+0  49214-3 0  9997
2 48784  87.9006 287.9163 0001687  91.7646 268.3678 13.15551325225442
ONEWEB-0240             
1 48785U 21045U   26024.20644169 -.00000010  00000+0 -61404-4 0  9991
2 48785  87.9011 287.9108 0001228  80.6679 279.4590 13.15549838225477
ONEWEB-0246             
1 48786U 21045V   26024.20089348  .00000031  00000+0  49486-4 0  9991
2 48786  87.9012 287.9215 0001567  70.7467 289.3833 13.15550038225349
ONEWEB-0210             
1 48787U 21045W   26024.25160634  .00000196  00000+0  48696-3 0  9998
2 48787  87.9005 287.9091 0001371  49.6356 310.4893 13.15548646225398
ONEWEB-0214             
1 48788U 21045X   26024.18425012  .00000183  00000+0  45292-3 0  9990
2 48788  87.9009 287.9166 0001592  60.1144 300.0144 13.15548083225359
ONEWEB-0221             
1 48789U 21045Y   26024.19138290  .00000082  00000+0  18482-3 0  9990
2 48789  87.9007 287.9270 0001367  74.7465 285.3817 13.15550832225448
ONEWEB-0213             
1 48790U 21045Z   26024.25635191  .00000189  00000+0  46797-3 0  9999
2 48790  87.9003 287.9185 0001343  66.7197 293.4074 13.15548201225518
ONEWEB-0212             
1 48791U 21045AA  26024.23336472  .00000066  00000+0  13995-3 0  9996
2 48791  87.9007 287.9167 0001562  78.3320 281.7986 13.15551572225509
ONEWEB-0227             
1 48792U 21045AB  26024.23258352 -.00000025  00000+0 -10084-3 0  9990
2 48792  87.8996 287.9227 0001456  76.6900 283.4392 13.15550564225454
ONEWEB-0226             
1 48793U 21045AC  26024.22624312 -.00000075  00000+0 -23458-3 0  9997
2 48793  87.8998 287.9340 0001429  65.3860 294.7419 13.15547625225429
ONEWEB-0224             
1 48794U 21045AD  26024.18979362  .00000118  00000+0  27994-3 0  9996
2 48794  87.9001 287.9768 0001141 111.8690 248.2562 13.15547555225345
ONEWEB-0233             
1 48795U 21045AE  26024.19441586  .00000092  00000+0  21035-3 0  9991
2 48795  87.8997 287.9858 0001249  75.5235 284.6034 13.15550401225363
ONEWEB-0190             
1 48796U 21045AF  26024.25794496  .00000208  00000+0  51815-3 0  9998
2 48796  87.8996 287.9343 0000987  52.8079 307.3142 13.15549043225446
ONEWEB-0236             
1 48797U 21045AG  26024.19930654  .00000039  00000+0  69440-4 0  9996
2 48797  87.9001 287.9571 0001656  79.4755 280.6562 13.15550299225329
ONEWEB-0248             
1 48798U 21045AH  26024.21198189 -.00000016  00000+0 -77587-4 0  9997
2 48798  87.9009 287.9232 0001012  84.1076 276.0170 13.15551046225489
ONEWEB-0225             
1 48799U 21045AJ  26024.23417486  .00000082  00000+0  18338-3 0  9993
2 48799  87.8997 287.9389 0001075  60.1809 299.9428 13.15550043225492
ONEWEB-0215             
1 48800U 21045AK  26024.20406377  .00000027  00000+0  36407-4 0  9997
2 48800  87.9012 287.9120 0000891  65.5134 294.6089 13.15549977225367
ONEWEB-0216             
1 48801U 21045AL  26024.21356641 -.00000073  00000+0 -22925-3 0  9999
2 48801  87.8999 287.9354 0001648  69.2294 290.9013 13.15550209225376
ONEWEB-0239             
1 48802U 21045AM  26024.21832374 -.00000056  00000+0 -18276-3 0  9997
2 48802  87.9000 287.9482 0000746  78.5615 281.5599 13.15548399225418
ONEWEB-0249             
1 48967U 21060A   26024.18984926  .00000008  00000+0 -13960-4 0  9995
2 48967  87.9016 257.4468 0001367  81.6703 278.4583 13.16596420220665
ONEWEB-0250             
1 48968U 21060B   26024.16362127  .00000048  00000+0  78559-4 0  9995
2 48968  87.9013 255.6785 0001635 120.6645 239.4652 13.25824647221134
ONEWEB-0252             
1 48970U 21060D   26024.14552037  .00000084  00000+0  18497-3 0  9991
2 48970  87.9017 257.4490 0001552  72.8007 287.3294 13.16594344220706
ONEWEB-0253             
1 48971U 21060E   26024.13443548  .00000043  00000+0  78107-4 0  9997
2 48971  87.9018 257.4562 0001366  79.4769 280.6516 13.16596276220630
ONEWEB-0254             
1 48972U 21060F   26024.14392781  .00000081  00000+0  17770-3 0  9991
2 48972  87.9019 257.4477 0001136  86.5864 273.5397 13.16593280220637
ONEWEB-0255             
1 48973U 21060G   26024.18193424  .00000091  00000+0  20474-3 0  9995
2 48973  87.9012 257.4523 0001217  83.1085 277.0185 13.16596545220711
ONEWEB-0256             
1 48974U 21060H   26024.13206352 -.00000007  00000+0 -52309-4 0  9998
2 48974  87.9008 257.4686 0001598  78.8954 281.2357 13.16594594220670
ONEWEB-0257             
1 48975U 21060J   26024.16451318  .00000090  00000+0  20059-3 0  9992
2 48975  87.9016 257.4450 0001350  77.7826 282.3456 13.16595973220631
ONEWEB-0258             
1 48976U 21060K   26024.16609852  .00000153  00000+0  36629-3 0  9991
2 48976  87.9010 257.4576 0001478  85.7922 274.3378 13.16595779220641
ONEWEB-0259             
1 48977U 21060L   26024.15976452  .00000149  00000+0  35737-3 0  9998
2 48977  87.9018 257.4558 0001312  83.7782 276.3498 13.16596163220675
ONEWEB-0260             
1 48978U 21060M   26024.15106297  .00000070  00000+0  14947-3 0  9994
2 48978  87.9004 257.4664 0001738  69.8135 290.3183 13.16594088220657
ONEWEB-0261             
1 48979U 21060N   26024.19697525  .00000015  00000+0  44522-5 0  9991
2 48979  87.9010 257.4590 0001213  70.9432 289.1831 13.16593399220711
ONEWEB-0262             
1 48980U 21060P   26024.17718288  .00000057  00000+0  11581-3 0  9994
2 48980  87.9017 257.4410 0001298  91.4859 268.6421 13.16595914220672
ONEWEB-0263             
1 48981U 21060Q   26024.13284295  .00000007  00000+0 -16545-4 0  9999
2 48981  87.9016 257.4613 0001144  77.6159 282.5100 13.16596392220632
ONEWEB-0264             
1 48982U 21060R   26024.17005645  .00000103  00000+0  23696-3 0  9994
2 48982  87.9016 257.4573 0001489  69.5967 290.5324 13.16593432220647
ONEWEB-0266             
1 48984U 21060T   26024.19143078  .00000036  00000+0  59958-4 0  9997
2 48984  87.9018 257.4423 0001476  88.5673 271.5627 13.16596179220631
ONEWEB-0267             
1 48985U 21060U   26024.20250806  .00000023  00000+0  26636-4 0  9991
2 48985  87.9013 257.4376 0001324  75.4004 284.7274 13.16596453220649
ONEWEB-0268             
1 48986U 21060V   26024.17084307  .00000078  00000+0  16955-3 0  9991
2 48986  87.9013 257.4532 0001466  78.1350 281.9945 13.16596195220901
ONEWEB-0269             
1 48987U 21060W   26024.15183981 -.00000011  00000+0 -61451-4 0  9999
2 48987  87.9003 257.4750 0001680  79.5080 280.6241 13.16596156220672
ONEWEB-0270             
1 48988U 21060X   26024.16926789  .00000102  00000+0  23293-3 0  9992
2 48988  87.9017 257.4551 0001051  85.6998 274.4253 13.16596186220717
